49P/Arend-Rigaux,e,19.0588,118.7927,332.9354,3.570031,0.1461155,0.59906776,351.5807,02/12.0/2025,2000,g 11.3,4.4
# From MPEC 2025-CE3
50P/Arend,e,19.0994,355.1469,49.3255,4.087782,0.1192539,0.52980866,32.8328,02/12.0/2025,2000,g  9.5,6.0
# From MPEC 2025-CE3
60P/Tsuchinshan,e,3.5798,267.3973,216.9341,3.530134,0.1485994,0.53386499,336.4261,02/12.0/2025,2000,g 11.5,6.0
# From MPEC 2025-CE3
62P/Tsuchinshan,e,4.7373,68.6663,47.3225,3.370694,0.1592668,0.62469786,66.0681,02/12.0/2025,2000,g  8.0,10.0
# From MPEC 2025-CE3
74P/Smirnova-Chernykh,e,6.2976,53.4982,79.4033,4.987104,0.0884976,0.03641027,302.8572,02/12.0/2025,2000,g  5.0,6.0
# From MPEC 2025-CE3
88P/Howell,e,4.3820,56.6681,235.8888,3.108091,0.1798719,0.56318465,288.0837,02/12.0/2025,2000,g 11.0,6.0
# From MPEC 2025-CE3
89P/Russell,e,12.0721,41.3443,250.4081,3.750604,0.1356914,0.40754914,43.7473,02/12.0/2025,2000,g 11.5,6.0
# From MPEC 2025-CE3
103P/Hartley,e,13.6095,219.7532,181.3228,3.475372,0.1521255,0.69360208,74.3175,02/12.0/2025,2000,g  8.5,8.0
# From MPEC 2025-CE3
130P/McNaught-Hughes,e,6.0631,70.1803,246.1991,3.383838,0.1583396,0.46105451,47.9715,02/12.0/2025,2000,g 10.0,6.0
# From MPEC 2025-CE3
136P/Mueller,e,9.4275,137.4229,225.2957,4.185116,0.1151179,0.29311634,4.5638,02/12.0/2025,2000,g 11.0,4.0
# From MPEC 2025-CE3
146P/Shoemaker-LINEAR,e,23.1202,53.3704,317.0687,4.027410,0.1219454,0.64758358,23.2383,02/12.0/2025,2000,g 15.0,4.0
# From MPEC 2025-CE3
154P/Brewington,e,17.6359,342.9990,47.9467,4.797921,0.0937831,0.67637356,22.8596,02/12.0/2025,2000,g  2.5,12.0
# From MPEC 2025-CE3
158P/Kowal-LINEAR,e,7.4082,124.8044,226.1983,5.654633,0.0732989,0.11806866,67.2807,02/12.0/2025,2000,g  9.0,4.0
# From MPEC 2025-CE3
170P/Christensen,e,10.1255,142.6450,224.8435,4.196936,0.1146319,0.30523233,76.5578,02/12.0/2025,2000,g 12.0,4.0
# From MPEC 2025-CE3
172P/Yeung,e,11.2239,30.8821,208.9192,4.222704,0.1135842,0.20475890,330.0513,02/12.0/2025,2000,g 13.0,4.0
# From MPEC 2025-CE3
195P/Hill,e,36.4194,243.1054,250.5326,6.450056,0.0601671,0.31150797,349.5261,02/12.0/2025,2000,g  8.5,4.0
# From MPEC 2025-CE3
208P/McMillan,e,4.4122,36.3356,310.7159,4.038808,0.1214295,0.37387623,20.8811,02/12.0/2025,2000,g 12.5,4.0
# From MPEC 2025-CE3
217P/LINEAR,e,12.8654,125.3716,247.0351,3.944525,0.1258091,0.68909519,347.1747,02/12.0/2025,2000,g 12.0,4.0
# From MPEC 2025-CE3
219P/LINEAR,e,11.5339,230.9489,107.7936,3.652205,0.1412119,0.35498602,51.3383,02/12.0/2025,2000,g 11.0,4.0
# From MPEC 2025-CE3
229P/Gibbs,e,26.0973,157.8839,224.2105,3.922915,0.1268501,0.37791939,357.2390,02/12.0/2025,2000,g 13.0,4.0
# From MPEC 2025-CE3
235P/LINEAR,e,9.8130,200.2100,352.0722,3.449497,0.1538404,0.42644313,311.7816,02/12.0/2025,2000,g 12.0,4.0
# From MPEC 2025-CE3
237P/LINEAR,e,14.0159,245.3545,25.4769,3.515244,0.1495447,0.43321699,95.6046,02/12.0/2025,2000,g 14.5,2.0
# From MPEC 2025-CE3
242P/Spahr,e,32.4266,180.2856,244.9259,5.537279,0.0756414,0.28275024,3.8402,02/12.0/2025,2000,g  8.0,4.0
# From MPEC 2025-CE3
253P/PANSTARRS,e,4.9440,146.8575,230.8333,3.463745,0.1528921,0.41485485,17.4283,02/12.0/2025,2000,g 14.5,4.0
# From MPEC 2025-CE3
268P/Bernardi,e,15.6612,125.6320,0.0132,4.591719,0.1001708,0.47456755,5.5622,02/12.0/2025,2000,g 14.0,4.0
# From MPEC 2025-CE3
276P/Vorobjov,e,14.7931,211.3234,199.2792,5.356142,0.0795108,0.27210883,5.0266,02/12.0/2025,2000,g 11.5,4.0
# From MPEC 2025-CE3
294P/LINEAR,e,17.7404,309.6051,237.5680,3.191656,0.1728542,0.60111260,328.8560,02/12.0/2025,2000,g 15.5,4.0
# From MPEC 2025-CE3
305P/Skiff,e,11.6715,240.1045,147.4203,4.637385,0.0986948,0.69409126,8.5713,02/12.0/2025,2000,g 18.0,4.0
# From MPEC 2025-CE3
323P/SOHO,e,5.2104,323.9530,353.3212,2.440234,0.2585573,0.98344298,0.0000,03/14.2305/2025,2000,g 20.0,4.0
# From MPEC 2025-CE3
333P/LINEAR,e,132.0224,115.7064,26.0172,4.220287,0.1136818,0.73628700,8.4923,02/12.0/2025,2000,g 15.0,4.0
# From MPEC 2025-CE3
338P/McNaught,e,25.3792,9.7783,4.6175,3.895388,0.1281970,0.41265880,24.6998,02/12.0/2025,2000,g 12.0,4.0
# From MPEC 2025-CE3
382P/Larson,e,8.2613,170.6623,162.2358,5.900011,0.0687741,0.26698635,82.2492,02/12.0/2025,2000,g  8.0,4.0
# From MPEC 2025-CE3
384P/Kowalski,e,7.2836,354.1901,37.7118,2.898076,0.1997742,0.61629639,29.1402,02/12.0/2025,2000,g 19.5,4.0
# From MPEC 2025-CE3
404P/Bressi,e,9.8042,260.0417,169.0984,4.720571,0.0960976,0.12453844,44.9994,02/12.0/2025,2000,g 10.0,4.0
# From MPEC 2025-CE3
408P/Novichonok-Gerke,e,19.3533,189.4497,226.6705,4.745293,0.0953475,0.26852485,81.9937,02/12.0/2025,2000,g 11.0,4.0
# From MPEC 2025-CE3
450P/LONEOS,e,10.6151,124.4781,22.5755,7.956044,0.0439196,0.31393117,328.7267,02/12.0/2025,2000,g  6.5,4.0
# From MPEC 2025-CE3
456P/PANSTARRS,e,16.9669,243.1525,233.0395,3.171607,0.1744958,0.11646207,349.1606,02/12.0/2025,2000,g 13.5,4.0
# From MPEC 2025-CE3
470P/PANSTARRS,e,8.8443,246.1735,151.7474,4.466452,0.1044143,0.38956814,44.1662,02/12.0/2025,2000,g 15.5,4.0
# From MPEC 2025-CE3
472P/NEAT-LINEAR,e,10.8244,205.8957,218.8774,7.799496,0.0452485,0.56555232,9.6094,02/12.0/2025,2000,g 10.5,4.0
# From MPEC 2025-CE3
476P/PANSTARRS,e,19.0054,57.0530,46.7335,4.777181,0.0943945,0.34619150,11.1843,02/12.0/2025,2000,g 12.5,4.0
# From MPEC 2025-CE3
487P/SidingSpring,e,39.3670,49.2084,0.8573,5.165265,0.0839586,0.64862976,9.6021,02/12.0/2025,2000,g 13.5,4.0
# From MPEC 2025-CE3
492P/LINEAR,e,11.4004,11.3089,40.9929,5.762960,0.0712419,0.69076962,14.7124,02/12.0/2025,2000,g 15.0,4.0
# From MPEC 2025-CE3
496P/Hill,e,14.8146,63.5878,42.2483,6.103158,0.0653691,0.73439204,358.2818,02/12.0/2025,2000,g 14.0,4.0
# From MPC107687
1I/`Oumuamua,h,09/09.4886/2017,122.6778,24.5997,241.6845,1.199252,0.255240,2000,23.0,2.0
# From MPEC 2023-L37
2I/Borisov,h,12/08.5548/2019,44.0527,308.1480,209.1251,3.356633,2.006548,2000,11.0,4.0
